stk.v.4.3 

BEGIN Ephemeris 
 
NumberOfEphemerisPoints		146 
ScenarioEpoch	    3 Sep 2020 22: 0:30.108976365 
InterpolationMethod		Lagrange 
InterpolationOrder		5 
CentralBody				Earth 
CoordinateSystem			TEME 
CoordinateSystemEpoch	  3 Sep 2020 22: 0:30.108976365 
DistanceUnit			Kilometers 
 
EphemerisTimePosVel 
 
       0.00000000   -2321.68492703   -6771.91305802       0.03451057  0.446929974 -0.143090109  7.448725237
 END Ephemeris 
